{"version": 0.6, "generator": "Overpass API 0.7.56.9 76e5016d", "osm3s": {"timestamp_osm_base": "2021-09-08T07:57:58Z", "copyright": "The data included in this document is from www.openstreetmap.org. The data is made available under ODbL."}, "elements": [{"type": "node", "id": 1060542233, "lat": -37.7296943, "lon": 175.27458, "tags": {"amenity": "restaurant", "cuisine": "indian", "name": "Little India"}}, {"type": "node", "id": 1060542242, "lat": -37.7300177, "lon": 175.274609, "tags": {"amenity": "restaurant", "name": "Mr Sushi"}}, {"type": "node", "id": 1795271428, "lat": -37.7924503, "lon": 175.2932245, "tags": {"addr:city": "Hamilton", "addr:housenumber": "396", "addr:street": "Grey Street", "amenity": "restaurant", "cuisine": "indian", "name": "Bananaa Leaf", "website": "http://www.bananaaleaf.co.nz/"}}, {"type": "node", "id": 1889621763, "lat": -37.7503128, "lon": 175.2776653}, {"type": "node", "id": 1889621765, "lat": -37.750344, "lon": 175.2773649}, {"type": "node", "id": 1889621781, "lat": -37.7505145, "lon": 175.2776989}, {"type": "node", "id": 1889621783, "lat": -37.750552, "lon": 175.2773374}, {"type": "node", "id": 1903949411, "lat": -37.7829791, "lon": 175.2893308, "tags": {"addr:housenumber": "695a", "addr:postcode": "3216", "addr:street": "Grey Street", "amenity": "restaurant", "brand": "Pizza Hut", "brand:wikidata": "Q191615", "brand:wikipedia": "en:Pizza Hut", "cuisine": "pizza", "name": "Pizza Hut", "website": "https://www.pizzahut.co.nz/"}}, {"type": "node", "id": 2335055647, "lat": -37.7930353, "lon": 175.2930196, "tags": {"addr:city": "Hamilton", "addr:housenumber": "379-381", "addr:postcode": "3216", "addr:street": "Grey Street", "amenity": "restaurant", "cuisine": "turkish", "name": "Babaganush", "source": "Survey", "website": "https://babaganush.co.nz/"}}, {"type": "node", "id": 2368316048, "lat": -37.7896922, "lon": 175.2996705, "tags": {"addr:city": "Hamilton", "addr:housenumber": "2", "addr:street": "Peachgrove Road", "addr:suburb": "Hamilton East", "amenity": "restaurant", "cuisine": "indian", "name": "The Curry King", "opening_hours": "Mo-Su 17:30-21:30; We-Sa 11:30-14:00,17:00-22:00", "ref:linz:address_id": "692172", "source": "Survey 02Aug2015", "website": "https://www.thecurryking.co.nz/"}}, {"type": "node", "id": 2371557524, "lat": -37.787944, "lon": 175.2776682}, {"type": "node", "id": 2371557531, "lat": -37.7877994, "lon": 175.2775364}, {"type": "node", "id": 2375830342, "lat": -37.7877321, "lon": 175.2776632}, {"type": "node", "id": 2375901563, "lat": -37.788039, "lon": 175.2777617}, {"type": "node", "id": 2375901572, "lat": -37.7878009, "lon": 175.2777288}, {"type": "node", "id": 2375901576, "lat": -37.7879674, "lon": 175.2778801}, {"type": "node", "id": 2421501217, "lat": -37.791969, "lon": 175.2926417, "tags": {"addr:city": "Hamilton", "addr:housenumber": "435", "addr:street": "Grey Street", "addr:suburb": "Hamilton East", "amenity": "restaurant", "cuisine": "thai", "name": "Thai Orchid", "ref:linz:address_id": "907830", "source": "Survey"}}, {"type": "node", "id": 2441193169, "lat": -37.7856401, "lon": 175.2828838, "tags": {"amenity": "restaurant", "name": "Palate"}}, {"type": "node", "id": 2441193179, "lat": -37.7856635, "lon": 175.2827846, "tags": {"amenity": "restaurant", "cuisine": "indian", "name": "Indian Star"}}, {"type": "node", "id": 2464941613, "lat": -37.7887788, "lon": 175.2827853, "tags": {"addr:city": "Hamilton", "addr:street": "Collingwood Street", "amenity": "restaurant", "cuisine": "sichuan", "name": "Hot & Spicy Chinese Restaurant", "source": "resurveyed 25Jun2015"}}, {"type": "node", "id": 2466160702, "lat": -37.8014063, "lon": 175.321981, "tags": {"amenity": "restaurant", "name": "Hillcrest Haven Bar & Eatery"}}, {"type": "node", "id": 2467388558, "lat": -37.7620814, "lon": 175.2876913, "tags": {"amenity": "restaurant", "cuisine": "indian", "name": "Curry House"}}, {"type": "node", "id": 2470887660, "lat": -37.7899612, "lon": 175.2837667}, {"type": "node", "id": 2470887667, "lat": -37.7898222, "lon": 175.2839953}, {"type": "node", "id": 2470887671, "lat": -37.7900282, "lon": 175.283832}, {"type": "node", "id": 2470887675, "lat": -37.7898892, "lon": 175.2840606}, {"type": "node", "id": 2480983864, "lat": -37.7870142, "lon": 175.282586, "tags": {"addr:city": "Hamilton", "amenity": "restaurant", "cuisine": "asian", "name": "Singapore Restaurant"}}, {"type": "node", "id": 2483145023, "lat": -37.7910874, "lon": 175.291744, "tags": {"addr:housenumber": "475", "addr:street": "Grey Street", "amenity": "restaurant", "cuisine": "tapas", "name": "Clarence", "website": "http://www.theclarence.co.nz/"}}, {"type": "node", "id": 2483216403, "lat": -37.7918059, "lon": 175.292585, "tags": {"addr:city": "Hamilton", "addr:housenumber": "445", "addr:street": "Grey Street", "addr:suburb": "Hamilton East", "amenity": "restaurant", "cuisine": "chinese", "name": "Chef's Delight", "ref:linz:address_id": "907823"}}, {"type": "node", "id": 2487730412, "lat": -37.7928814, "lon": 175.2933861, "tags": {"addr:city": "Hamilton", "addr:housenumber": "374-376", "addr:street": "Grey Street", "amenity": "restaurant", "cuisine": "fish_and_chips", "name": "Fish Punk", "website": "http://www.fishpunk.co.nz/"}}, {"type": "node", "id": 2490694420, "lat": -37.792617, "lon": 175.2883189}, {"type": "node", "id": 2490694424, "lat": -37.7924074, "lon": 175.2884104}, {"type": "node", "id": 2490694425, "lat": -37.7925395, "lon": 175.2884517}, {"type": "node", "id": 2490694427, "lat": -37.7924385, "lon": 175.2883573}, {"type": "node", "id": 2490694435, "lat": -37.7923538, "lon": 175.2883602}, {"type": "node", "id": 2490694456, "lat": -37.7924624, "lon": 175.2881743}, {"type": "node", "id": 2493079267, "lat": -37.784822, "lon": 175.279812}, {"type": "node", "id": 2493079268, "lat": -37.7847563, "lon": 175.2799301}, {"type": "node", "id": 2493079273, "lat": -37.7847923, "lon": 175.2801125}, {"type": "node", "id": 2493079282, "lat": -37.7849187, "lon": 175.2798995}, {"type": "node", "id": 2493170859, "lat": -37.7846317, "lon": 175.2803814}, {"type": "node", "id": 2493261418, "lat": -37.7845405, "lon": 175.2802974}, {"type": "node", "id": 2498103436, "lat": -37.7845641, "lon": 175.2762605}, {"type": "node", "id": 2498103437, "lat": -37.7846102, "lon": 175.2761786}, {"type": "node", "id": 2498103440, "lat": -37.7846956, "lon": 175.2763791}, {"type": "node", "id": 2498103443, "lat": -37.7847417, "lon": 175.2762972}, {"type": "node", "id": 2498103446, "lat": -37.7847572, "lon": 175.2764347}, {"type": "node", "id": 2498103449, "lat": -37.7848033, "lon": 175.2763528}, {"type": "node", "id": 2505491395, "lat": -37.7890228, "lon": 175.2844583, "tags": {"addr:city": "Hamilton", "addr:housenumber": "195", "addr:street": "Victoria Street", "addr:suburb": "Hamilton Central", "amenity": "restaurant", "cuisine": "mongolian", "name": "Gengy's", "ref:linz:address_id": "901533", "source": "resurveyed 26Jun2015"}}, {"type": "node", "id": 2505491401, "lat": -37.788939, "lon": 175.284365, "tags": {"addr:city": "Hamilton", "addr:housenumber": "203", "addr:street": "Victoria Street", "addr:suburb": "Hamilton Central", "amenity": "restaurant", "name": "Iguana", "ref:linz:address_id": "901534", "source": "resurveyed 26Jun2015", "website": "https://www.iguana.co.nz/"}}, {"type": "node", "id": 2505491409, "lat": -37.7890993, "lon": 175.2845264, "tags": {"addr:city": "Hamilton", "addr:housenumber": "185", "addr:street": "Victoria Street", "addr:suburb": "Hamilton Central", "amenity": "restaurant", "name": "Lone Star", "ref:linz:address_id": "901530", "source": "resurveyed 26Jun2015", "website": "http://www.lonestar.co.nz/location/5/hamilton.aspx"}}, {"type": "node", "id": 2505557633, "lat": -37.7902823, "lon": 175.2848313, "tags": {"addr:city": "Hamilton", "addr:housenumber": "18", "addr:street": "Hood Street", "addr:suburb": "Hamilton Central", "amenity": "restaurant", "name": "Mix Kitchen & Bar", "opening_hours": "Tu-Th 17:00-23:00; Fr-Su 11:00-14:30,17:00-23:00", "ref:linz:address_id": "1554501", "website": "http://mixkitchenbar.co.nz/"}}, {"type": "node", "id": 2505557638, "lat": -37.790372, "lon": 175.2841924, "tags": {"addr:housenumber": "4", "addr:street": "Alexandra Street", "addr:suburb": "Hamilton Central", "amenity": "restaurant", "cuisine": "indian", "name": "Little India", "ref:linz:address_id": "860240", "website": "https://www.littleindia.co.nz/hamilton-city"}}, {"type": "node", "id": 2506905701, "lat": -37.7904478, "lon": 175.2845712, "tags": {"addr:city": "Hamilton", "addr:housenumber": "20", "addr:street": "Hood Street", "addr:suburb": "Hamilton Central", "amenity": "restaurant", "cuisine": "japanese", "name": "Nami", "ref:linz:address_id": "860241"}}, {"type": "node", "id": 2506905706, "lat": -37.7905892, "lon": 175.2840332, "tags": {"amenity": "restaurant", "cuisine": "japanese", "name": "Shinjuku"}}, {"type": "node", "id": 2506905712, "lat": -37.790379, "lon": 175.2846917, "tags": {"addr:city": "Hamilton", "addr:housenumber": "16", "addr:street": "Hood Street", "addr:suburb": "Hamilton Central", "amenity": "restaurant", "cuisine": "thai", "name": "Viet Thai Village", "ref:linz:address_id": "1554502"}}, {"type": "node", "id": 2506905719, "lat": -37.7894992, "lon": 175.284925, "tags": {"addr:city": "Hamilton", "addr:housenumber": "153", "addr:street": "Victoria Street", "amenity": "restaurant", "name": "Victoria Street Bistro", "source": "resurveyed 26Jun2015", "website": "http://www.victoriastreetbistro.co.nz/"}}, {"type": "node", "id": 2507900406, "lat": -37.7882577, "lon": 175.2841492, "tags": {"addr:city": "Hamilton", "amenity": "restaurant", "cuisine": "mexican", "name": "Mexico"}}, {"type": "node", "id": 2507969654, "lat": -37.785944, "lon": 175.2824243, "tags": {"addr:housenumber": "6", "addr:street": "Alma Street", "addr:suburb": "Hamilton Central", "amenity": "restaurant", "cuisine": "italian", "name": "Adriana's", "ref:linz:address_id": "682394", "website": "http://adrianas.co.nz/"}}, {"type": "node", "id": 2507969655, "lat": -37.7858794, "lon": 175.2825598, "tags": {"addr:housenumber": "10", "addr:street": "Alma Street", "addr:suburb": "Hamilton Central", "amenity": "restaurant", "cuisine": "italian", "name": "Caffe Centrale", "ref:linz:address_id": "682113", "website": "https://caffecentrale.co.nz/"}}, {"type": "node", "id": 2507969656, "lat": -37.7859138, "lon": 175.282492, "tags": {"addr:housenumber": "8", "addr:street": "Alma Street", "amenity": "restaurant", "cuisine": "thai", "name": "The Original Thai"}}, {"type": "node", "id": 2508149541, "lat": -37.7895673, "lon": 175.2854121, "tags": {"addr:housenumber": "150", "addr:street": "Victoria Street", "addr:suburb": "Hamilton Central", "amenity": "restaurant", "name": "Furnace", "ref:linz:address_id": "53548", "website": "http://www.furnacebar.co.nz/"}}, {"type": "node", "id": 2508149546, "lat": -37.7885632, "lon": 175.2840113, "tags": {"addr:city": "Hamilton", "addr:housenumber": "237A", "addr:street": "Victoria Street", "amenity": "restaurant", "cuisine": "italian", "name": "Piccola", "source": "resurveyed 26Jun2015"}}, {"type": "node", "id": 2508149547, "lat": -37.7884433, "lon": 175.2838982, "tags": {"addr:city": "Hamilton", "addr:housenumber": "237", "addr:street": "Victoria Street", "addr:suburb": "Hamilton Central", "amenity": "restaurant", "cuisine": "italian", "name": "Portofino", "ref:linz:address_id": "682231", "source": "resurveyed 26Jun2015"}}, {"type": "node", "id": 2508149550, "lat": -37.788618, "lon": 175.2840732, "tags": {"addr:city": "Hamilton", "addr:housenumber": "237", "addr:street": "Victoria Street", "amenity": "restaurant", "name": "Agenda", "opening_hours": "Tu-Su 17:00-24:00", "website": "http://www.ontheagenda.co.nz/"}}, {"type": "node", "id": 2508149554, "lat": -37.7894387, "lon": 175.2847802, "tags": {"addr:city": "Hamilton", "addr:housenumber": "161", "addr:street": "Victoria Street", "addr:suburb": "Hamilton Central", "amenity": "restaurant", "cuisine": "indian", "name": "Zyka", "ref:linz:address_id": "682156", "source": "resurveyed 26Jun2015"}}, {"type": "node", "id": 2509146407, "lat": -37.7818957, "lon": 175.2778128, "tags": {"addr:city": "Hamilton", "addr:housenumber": "789", "addr:street": "Victoria Street", "addr:suburb": "Hamilton Central", "amenity": "restaurant", "cuisine": "japanese", "name": "Donburi-Ya", "ref:linz:address_id": "682050", "takeaway": "yes"}}, {"type": "node", "id": 2509146411, "lat": -37.7818408, "lon": 175.2777701, "tags": {"addr:city": "Hamilton", "addr:housenumber": "793", "addr:street": "Victoria Street", "amenity": "restaurant", "cuisine": "indian", "name": "Jaipur Walla", "takeaway": "yes", "website": "http://www.jaipurindia.co.nz/index.html"}}, {"type": "node", "id": 2509146414, "lat": -37.7819745, "lon": 175.2778895, "tags": {"addr:city": "Hamilton", "addr:housenumber": "783", "addr:street": "Victoria Street", "addr:suburb": "Hamilton Central", "amenity": "restaurant", "cuisine": "thai", "name": "Thai Classic Cuisine", "ref:linz:address_id": "682048", "takeaway": "yes", "website": "http://www.thaiclassiccuisine.co.nz/"}}, {"type": "node", "id": 2509167261, "lat": -37.7885473, "lon": 175.2836874, "tags": {"addr:city": "Hamilton", "addr:street": "Collingwood Street", "amenity": "restaurant", "cuisine": "korean", "name": "Koreana", "source": "resurveyed 26Jun2015"}}, {"type": "node", "id": 2512163224, "lat": -37.7799499, "lon": 175.2768996}, {"type": "node", "id": 2512163225, "lat": -37.7799707, "lon": 175.2769173}, {"type": "node", "id": 2512163226, "lat": -37.7800012, "lon": 175.27686}, {"type": "node", "id": 2512163228, "lat": -37.78001, "lon": 175.276786}, {"type": "node", "id": 2512163229, "lat": -37.7800103, "lon": 175.2767863}, {"type": "node", "id": 2512163231, "lat": -37.7800136, "lon": 175.2768709}, {"type": "node", "id": 2512163232, "lat": -37.7800442, "lon": 175.2768152}, {"type": "node", "id": 2512163234, "lat": -37.7800772, "lon": 175.2766642}, {"type": "node", "id": 2512163235, "lat": -37.7800892, "lon": 175.2766376}, {"type": "node", "id": 2512163236, "lat": -37.7801067, "lon": 175.2768686}, {"type": "node", "id": 2512163237, "lat": -37.7801858, "lon": 175.2767202}, {"type": "node", "id": 2512574971, "lat": -37.781296, "lon": 175.2772786, "tags": {"addr:city": "Hamilton", "addr:housenumber": "829", "addr:street": "Victoria Street", "addr:suburb": "Hamilton Central", "amenity": "restaurant", "cuisine": "thai", "name": "Baan Thai", "ref:linz:address_id": "682066"}}, {"type": "node", "id": 2512574992, "lat": -37.7811631, "lon": 175.2771737, "tags": {"addr:city": "Hamilton", "addr:housenumber": "851", "addr:street": "Victoria Street", "amenity": "restaurant", "cuisine": "indian", "name": "The Gulmohar", "opening_hours": "Mo-Fr 11:30-14:30,17:00-22:00; Sa,Su 17:00-22:00", "website": "http://www.thegulmohar.co.nz/"}}, {"type": "node", "id": 2515981658, "lat": -37.7879974, "lon": 175.2834003, "tags": {"addr:city": "Hamilton", "addr:housenumber": "303", "addr:street": "Victoria Street", "amenity": "restaurant", "cuisine": "chinese", "name": "Master House", "website": "https://www.masterhouse.co.nz/"}}, {"type": "node", "id": 2515981687, "lat": -37.7879501, "lon": 175.2833582, "tags": {"addr:city": "Hamilton", "addr:housenumber": "303", "addr:street": "Victoria Street", "addr:suburb": "Hamilton Central", "amenity": "restaurant", "cuisine": "thai", "name": "Thai House Express", "ref:linz:address_id": "682277"}}, {"type": "node", "id": 2515981691, "lat": -37.7876073, "lon": 175.2830531, "tags": {"addr:city": "Hamilton", "addr:housenumber": "331", "addr:street": "Victoria Street", "addr:suburb": "Hamilton Central", "amenity": "restaurant", "cuisine": "japanese", "name": "Samurai Sizzle", "ref:linz:address_id": "682289"}}, {"type": "node", "id": 2517131914, "lat": -37.7837007, "lon": 175.279496, "tags": {"addr:city": "Hamilton", "addr:housenumber": "643", "addr:street": "Victoria Street", "addr:suburb": "Hamilton Central", "amenity": "restaurant", "cuisine": "korean", "name": "Little Korea", "ref:linz:address_id": "1313634"}}, {"type": "node", "id": 2517131939, "lat": -37.7845258, "lon": 175.280267, "tags": {"addr:city": "Hamilton", "addr:housenumber": "567", "addr:street": "Victoria Street", "addr:suburb": "Hamilton Central", "amenity": "restaurant", "cuisine": "japanese", "name": "i Japanese Cafe", "opening_hours": "Mo-Sa 11:00-16:00", "ref:linz:address_id": "681987"}}, {"type": "node", "id": 2519540400, "lat": -37.7882864, "lon": 175.2841712, "tags": {"addr:city": "Hamilton", "addr:housenumber": "250", "addr:street": "Victoria Street", "addr:suburb": "Hamilton Central", "amenity": "restaurant", "cuisine": "pizza", "name": "Dough Bros", "ref:linz:address_id": "682243", "website": "http://www.doughbros.co.nz/"}}, {"type": "node", "id": 2519540401, "lat": -37.7891961, "lon": 175.2850094, "tags": {"addr:city": "Hamilton", "addr:housenumber": "186", "addr:street": "Victoria Street", "addr:suburb": "Hamilton Central", "amenity": "restaurant", "cuisine": "steak_house", "name": "Bluestone Steakhouse", "ref:linz:address_id": "901540", "website": "http://www.bluestonesteakhouse.co.nz/"}}, {"type": "node", "id": 2519540408, "lat": -37.7888111, "lon": 175.2846311, "tags": {"addr:city": "Hamilton", "addr:housenumber": "198", "addr:street": "Victoria Street", "amenity": "restaurant", "cuisine": "chinese", "name": "Master Kong Restaurant", "name:zh": "\u88d5\u8363\u697c\u8336\u70b9"}}, {"type": "node", "id": 2519540413, "lat": -37.7885056, "lon": 175.2843342, "tags": {"addr:city": "Hamilton", "addr:housenumber": "236", "addr:street": "Victoria Street", "addr:suburb": "Hamilton Central", "amenity": "restaurant", "cuisine": "chinese", "name": "Three Leg Frog", "ref:linz:address_id": "1558774"}}, {"type": "node", "id": 2520742583, "lat": -37.7845727, "lon": 175.2813791, "tags": {"addr:housenumber": "6", "addr:street": "Bryce Street", "addr:suburb": "Hamilton Central", "amenity": "restaurant", "name": "Joe's Garage", "ref:linz:address_id": "682038", "website": "https://www.joes.co.nz/"}}, {"type": "node", "id": 2520742585, "lat": -37.7846779, "lon": 175.2812058, "tags": {"addr:housenumber": "8", "addr:street": "Bryce Street", "addr:suburb": "Hamilton Central", "amenity": "restaurant", "cuisine": "chinese", "name": "Bryce Corner Wok Maestro", "opening_hours": "Tu-Su 12:30-15:00,17:30-21:30", "ref:linz:address_id": "682081"}}, {"type": "node", "id": 2523905906, "lat": -37.7888767, "lon": 175.2846913, "tags": {"addr:city": "Hamilton", "addr:housenumber": "198", "addr:street": "Victoria Street", "addr:suburb": "Hamilton Central", "amenity": "restaurant", "cuisine": "vietnamese", "name": "Banh mi Caphe", "ref:linz:address_id": "901537"}}, {"type": "node", "id": 2523993460, "lat": -37.7845212, "lon": 175.276337}, {"type": "node", "id": 2523993476, "lat": -37.784659, "lon": 175.2764606}, {"type": "node", "id": 2523993484, "lat": -37.7847018, "lon": 175.2763841}, {"type": "node", "id": 2639410799, "lat": -37.7885729, "lon": 175.2844313, "tags": {"addr:city": "Hamilton", "addr:housenumber": "228", "addr:street": "Victoria Street", "amenity": "restaurant", "cuisine": "chinese", "name": "Shan Yuan", "name:zh": "\u81b3\u7f18\u7f8e\u98df", "name:zh_pinyin": "sh\u00e0n yu\u00e1n m\u011bi sh\u00ed"}}, {"type": "node", "id": 2639410808, "lat": -37.7883779, "lon": 175.2842258, "tags": {"addr:city": "Hamilton", "addr:housenumber": "244", "addr:street": "Victoria Street", "amenity": "restaurant", "cuisine": "chinese", "name": "The Chilli House", "name:zh": "\u5ddd\u59b9\u5b50", "opening_hours": "Mo-Su 11:00-21:30; Tu off", "phone": "+64 7 839 0098", "takeaway": "yes"}}, {"type": "node", "id": 2639410809, "lat": -37.7882123, "lon": 175.2841124, "tags": {"addr:city": "Hamilton", "addr:housenumber": "264", "addr:street": "Victoria Street", "amenity": "restaurant", "cuisine": "asian", "name": "Yum Hamilton"}}, {"type": "node", "id": 2678433726, "lat": -37.788508, "lon": 175.2837551, "tags": {"addr:city": "Hamilton", "amenity": "restaurant", "cuisine": "asian", "name": "K & Q Restaurant & Bar", "source": "resurveyed 26Jun2015"}}, {"type": "node", "id": 2865978019, "lat": -37.7504062, "lon": 175.2326154, "tags": {"amenity": "restaurant", "brand": "Nando's", "brand:wikidata": "Q3472954", "brand:wikipedia": "en:Nando's", "cuisine": "chicken;portuguese", "name": "Nando's"}}, {"type": "node", "id": 2865978024, "lat": -37.7502868, "lon": 175.2330161, "tags": {"amenity": "restaurant", "cuisine": "sushi", "name": "St Pierres Sushi of Japan"}}, {"type": "node", "id": 2883080248, "lat": -37.7612251, "lon": 175.2302855, "tags": {"amenity": "restaurant", "name": "Windows Training Restaurant"}}, {"type": "node", "id": 2927094326, "lat": -37.7854368, "lon": 175.2798999, "tags": {"addr:city": "Hamilton", "addr:housenumber": "44", "addr:street": "Bryce Street", "amenity": "restaurant", "cuisine": "asian", "name": "Ming City"}}, {"type": "node", "id": 2955261976, "lat": -37.7800426, "lon": 175.2761479, "tags": {"addr:housenumber": "941A", "addr:street": "Victoria Street", "amenity": "restaurant", "cuisine": "chinese", "name": "Jing Jin Tang Restaurant"}}, {"type": "node", "id": 3045196053, "lat": -37.7310251, "lon": 175.2742102, "tags": {"addr:street": "Thomas Road", "amenity": "restaurant", "cuisine": "korean", "name": "Arang"}}, {"type": "node", "id": 3045196058, "lat": -37.7309035, "lon": 175.2737657, "tags": {"addr:street": "Thomas Road", "amenity": "restaurant", "name": "Lone Star"}}, {"type": "node", "id": 3060065150, "lat": -37.7888027, "lon": 175.2826845, "tags": {"addr:city": "Hamilton", "addr:housenumber": "104", "addr:street": "Alexandra Street", "addr:suburb": "Hamilton Central", "amenity": "restaurant", "cuisine": "ice_cream", "internet_access": "wlan", "name": "Snow Town", "opening_hours": "Tu-Su 12:30-22:00", "phone": "+64 7 839 6502", "ref:linz:address_id": "905981", "website": "https://www.facebook.com/snowtowninhamilton"}}, {"type": "node", "id": 3062573694, "lat": -37.7731757, "lon": 175.2942989, "tags": {"addr:city": "Hamilton", "addr:housenumber": "234B", "addr:street": "Peachgrove Road", "addr:suburb": "Claudelands", "amenity": "restaurant", "cuisine": "chinese", "name": "Golden Dragon", "ref:linz:address_id": "906409"}}, {"type": "node", "id": 3062573711, "lat": -37.7727653, "lon": 175.294896, "tags": {"amenity": "restaurant", "cuisine": "chinese", "name": "Sam's"}}, {"type": "node", "id": 3064479575, "lat": -37.7724383, "lon": 175.2935592, "tags": {"addr:city": "Hamilton", "addr:housenumber": "260", "addr:street": "Peachgrove Road", "amenity": "restaurant", "cuisine": "indian", "name": "Spices Indian Cuisine", "website": "https://spices5x.co.nz/"}}, {"type": "node", "id": 3362541961, "lat": -37.7901834, "lon": 175.2872285, "tags": {"addr:city": "Hamilton", "addr:country": "NZ", "addr:housename": "ANZ Centre", "addr:housenumber": "17", "addr:postcode": "3204", "addr:province": "Waikato", "addr:street": "Grantham Street", "addr:suburb": "Hamilton Central", "amenity": "restaurant", "cuisine": "European,Fusion,Tapas", "email": "info@gothenburg.co.nz", "name": "Gothenburg Cafe Restaurant Bar", "phone": "+64 (7) 834 3562", "reservation": "yes", "smoking": "no", "website": "https://www.gothenburg.co.nz/", "wheelchair": "yes"}}, {"type": "node", "id": 3362897586, "lat": -37.7854835, "lon": 175.3086365, "tags": {"addr:city": "Hamilton", "addr:housenumber": "62", "addr:postcode": "3216", "addr:street": "Cameron Road", "amenity": "restaurant", "cuisine": "indian", "name": "Royale Indian Restaurant", "website": "https://royaleindian.co.nz/"}}, {"type": "node", "id": 3408005574, "lat": -37.7486505, "lon": 175.2490991, "tags": {"amenity": "restaurant", "cuisine": "indian", "name": "Friends Cuisine of India"}}, {"type": "node", "id": 3410006822, "lat": -37.7885897, "lon": 175.2836145, "tags": {"addr:city": "Hamilton", "addr:housenumber": "7", "addr:street": "Collingwood Street", "amenity": "restaurant", "cuisine": "chinese", "name": "Springcake", "opening_hours": "Mo-Su 11:00-15:00,17:00-24:00; Tu 17:00-24:00"}}, {"type": "node", "id": 3451562534, "lat": -37.7878452, "lon": 175.2780727, "tags": {"amenity": "restaurant", "diet:vegan": "only", "name": "Vegan Buffet"}}, {"type": "node", "id": 3602408947, "lat": -37.7989985, "lon": 175.2893628}, {"type": "node", "id": 3602408948, "lat": -37.7990394, "lon": 175.2895536}, {"type": "node", "id": 3602408953, "lat": -37.7990274, "lon": 175.2893148}, {"type": "node", "id": 3602408962, "lat": -37.7991588, "lon": 175.2893134}, {"type": "node", "id": 3602408963, "lat": -37.7991615, "lon": 175.2893909}, {"type": "node", "id": 3602408964, "lat": -37.7991618, "lon": 175.2894932}, {"type": "node", "id": 3602408972, "lat": -37.799237, "lon": 175.2894902}, {"type": "node", "id": 3602408973, "lat": -37.7992389, "lon": 175.28957}, {"type": "node", "id": 3602408976, "lat": -37.79926, "lon": 175.2892619}, {"type": "node", "id": 3602408978, "lat": -37.7992808, "lon": 175.2893111}, {"type": "node", "id": 3619128620, "lat": -37.7887219, "lon": 175.2833869, "tags": {"addr:city": "Hamilton", "addr:housenumber": "27D", "addr:postcode": "3204", "addr:street": "Collingwood Street", "amenity": "restaurant", "name": "Chefs International Restaurant", "smoking": "no"}}, {"type": "node", "id": 3752332828, "lat": -37.7805845, "lon": 175.2880279}, {"type": "node", "id": 3752332829, "lat": -37.7806449, "lon": 175.2878606}, {"type": "node", "id": 3752332831, "lat": -37.7808965, "lon": 175.2882081}, {"type": "node", "id": 3752332832, "lat": -37.7809569, "lon": 175.2880408}, {"type": "node", "id": 3899214114, "lat": -37.7495358, "lon": 175.2942472, "tags": {"addr:city": "Hamilton", "addr:housenumber": "4", "addr:street": "Gordonton Road", "amenity": "restaurant", "cuisine": "indian", "name": "Friends Cuisine of India", "opening_hours": "Mo-Su 11:30-15:00,17:00-22:00", "website": "http://www.friendscuisine.co.nz/"}}, {"type": "node", "id": 3929887547, "lat": -37.7919834, "lon": 175.2940271, "tags": {"amenity": "restaurant", "diet:vegan": "yes", "diet:vegetarian": "yes", "name": "Two Birds Eatery", "opening_hours": "Mo-Fr 07:30-16:00; Sa,Su 08:30-14:30", "website": "http://twobirdseatery.co.nz/"}}, {"type": "node", "id": 3960919914, "lat": -37.7936394, "lon": 175.2931054, "tags": {"addr:city": "Hamilton", "addr:housenumber": "3A", "addr:street": "Cook Street", "addr:suburb": "Hamilton East", "amenity": "restaurant", "cuisine": "indian", "name": "Curry Bhavan", "opening_hours": "Mo-Su 11:00-15:00,16:30-22:00", "ref:linz:address_id": "1614184"}}, {"type": "node", "id": 4079440233, "lat": -37.7891707, "lon": 175.2856551, "tags": {"addr:city": "Hamilton", "addr:housenumber": "6", "addr:street": "Sapper Moore-Jones Place", "amenity": "restaurant", "cuisine": "thai", "name": "Madam Woo", "opening_hours": "Mo-Su 12:00-23:00", "website": "https://www.madamwoo.co.nz/", "wheelchair": "yes"}}, {"type": "node", "id": 4414539262, "lat": -37.7851821, "lon": 175.278344, "tags": {"addr:city": "Hamilton", "addr:street": "Casabella Lane", "amenity": "restaurant", "cuisine": "japanese", "name": "Kino Sushi"}}, {"type": "node", "id": 4483166571, "lat": -37.7714894, "lon": 175.2827294, "tags": {"addr:city": "Hamilton", "addr:housenumber": "1009", "addr:street": "Heaphy Terrace", "addr:suburb": "Fairfield", "amenity": "restaurant", "cuisine": "indian", "name": "Indian Host", "ref:linz:address_id": "1295469"}}, {"type": "node", "id": 4895032906, "lat": -37.7990001, "lon": 175.2895026}, {"type": "node", "id": 4896035620, "lat": -37.7922504, "lon": 175.293134, "tags": {"amenity": "restaurant", "cuisine": "indian", "name": "Curry on Grey"}}, {"type": "node", "id": 4971719686, "lat": -37.7961974, "lon": 175.2398338, "tags": {"amenity": "restaurant", "name": "One Forty Bar and Eatery"}}, {"type": "node", "id": 4971720131, "lat": -37.7962234, "lon": 175.2465231, "tags": {"amenity": "restaurant", "name": "TDO restaurant and Bar"}}, {"type": "node", "id": 4971720133, "lat": -37.7963672, "lon": 175.2458632, "tags": {"amenity": "restaurant", "cuisine": "indian", "name": "New Delhi Indian restaurant"}}, {"type": "node", "id": 5102045539, "lat": -37.7871784, "lon": 175.2797192, "tags": {"amenity": "restaurant", "cuisine": "pizza", "name": "Milanos Pizza"}}, {"type": "node", "id": 5102045540, "lat": -37.7869744, "lon": 175.2795462, "tags": {"amenity": "restaurant", "name": "Nandos"}}, {"type": "node", "id": 5102045541, "lat": -37.7858021, "lon": 175.2798224, "tags": {"amenity": "restaurant", "name": "Theobroma Chocolate Lounge"}}, {"type": "node", "id": 5102045542, "lat": -37.785747, "lon": 175.2799217, "tags": {"amenity": "restaurant", "name": "Breakers"}}, {"type": "node", "id": 5102045544, "lat": -37.7856023, "lon": 175.2801584, "tags": {"amenity": "restaurant", "name": "The Flying Burrito Brothers"}}, {"type": "node", "id": 5102045545, "lat": -37.7855456, "lon": 175.2802677, "tags": {"amenity": "restaurant", "name": "Sultans Kitchen"}}, {"type": "node", "id": 5102045546, "lat": -37.7854783, "lon": 175.2803693, "tags": {"amenity": "restaurant", "cuisine": "japanese", "name": "Daikoku"}}, {"type": "node", "id": 5102045706, "lat": -37.7609262, "lon": 175.2524545, "tags": {"amenity": "restaurant", "name": "The District Espresso Bar and Eatery"}}, {"type": "node", "id": 5272763624, "lat": -37.7911557, "lon": 175.259557, "tags": {"addr:housenumber": "85B", "addr:postcode": "3204", "addr:street": "Greenwood Street", "amenity": "restaurant", "cuisine": "japanese;sushi", "email": "koh5615@gmail.com", "internet_access": "wlan", "name": "Wow Sushi", "name:ko": "\uc640\uc6b0 \uc2a4\uc2dc", "opening_hours": "Mo-Fr 09:30-16:00; Sa 10:00-15:00", "phone": "+64 7 846 7000"}}, {"type": "node", "id": 6040718714, "lat": -37.7503911, "lon": 175.2773106}, {"type": "node", "id": 6040718715, "lat": -37.7503848, "lon": 175.2773717}, {"type": "node", "id": 6357504049, "lat": -37.7197742, "lon": 175.2420227, "tags": {"amenity": "restaurant", "cuisine": "indian", "name": "Friends of India"}}, {"type": "node", "id": 8967860394, "lat": -37.7883071, "lon": 175.2835768, "tags": {"addr:city": "Hamilton", "addr:country": "NZ", "addr:housenumber": "287", "addr:street": "Victoria Street", "addr:suburb": "Hamilton Central", "amenity": "restaurant", "email": "info@sisterfields.co.nz", "name": "Sisterfield's Restaurant Cafe and Bar", "phone": "+64 (7) 949 7746", "smoking": "no", "website": "https://www.sisterfields.co.nz/", "wheelchair": "yes"}}, {"type": "way", "id": 178615307, "nodes": [1889621765, 1889621763, 1889621781, 1889621783, 6040718714, 6040718715, 1889621765], "tags": {"addr:housenumber": "13", "addr:street": "Lynden Court", "addr:suburb": "Chartwell", "amenity": "restaurant", "building": "retail", "name": "Smith & McKenzie Chophouse", "ref:linz:address_id": "1426644", "website": "https://www.smithandmckenzie.co.nz/"}}, {"type": "way", "id": 228942224, "nodes": [2371557524, 2375901563, 2375901576, 2375901572, 2375830342, 2371557531, 2371557524], "tags": {"addr:housenumber": "158", "addr:street": "Ward Street", "addr:suburb": "Hamilton Central", "amenity": "restaurant", "building": "retail", "cuisine": "chinese", "name": "Victor's Place", "ref:linz:address_id": "1313639", "source": "survey", "website": "https://victorsplace.co.nz/"}}, {"type": "way", "id": 239289187, "nodes": [2470887660, 2470887671, 2470887675, 2470887667, 2470887660], "tags": {"addr:housenumber": "32", "addr:street": "Alexandra Street", "amenity": "restaurant", "building": "retail", "cuisine": "chinese", "name": "Canton Hongkong Restaurant"}}, {"type": "way", "id": 241423975, "nodes": [2490694435, 2490694456, 2490694420, 2490694425, 2490694427, 2490694424, 2490694435], "tags": {"addr:housenumber": "14", "addr:street": "Anzac Parade", "addr:suburb": "Hamilton Central", "amenity": "restaurant", "building": "retail", "cuisine": "international", "historic": "heritage_building", "name": "Chim Choo Ree", "old_name": "Waikato Brewery", "ref:linz:address_id": "687047", "website": "http://chimchooree.co.nz/"}}, {"type": "way", "id": 241732121, "nodes": [2493079273, 2493079282, 2493079267, 2493079268, 2493261418, 2493170859, 2493079273], "tags": {"addr:housenumber": "563", "addr:street": "Victoria Street", "addr:suburb": "Hamilton Central", "amenity": "restaurant", "building": "retail", "cuisine": "buffet", "name": "Valentines", "opening_hours": "Mo-Su 12:00-15:00,17:00-22:00", "ref:linz:address_id": "681984", "website": "http://www.valentines.co.nz/"}}, {"type": "way", "id": 242310610, "nodes": [2498103443, 2498103437, 2498103436, 2498103440, 2523993484, 2498103446, 2498103449, 2498103443], "tags": {"addr:housenumber": "136", "addr:street": "London Street", "addr:suburb": "Hamilton Central", "amenity": "restaurant", "building": "retail", "cuisine": "asian", "name": "Paradise Restaurant", "ref:linz:address_id": "681732"}}, {"type": "way", "id": 243859335, "nodes": [2512163229, 2512163224, 2512163225, 2512163226, 2512163231, 2512163232, 2512163236, 2512163237, 2512163235, 2512163234, 2512163228, 2512163229], "tags": {"addr:housenumber": "920", "addr:street": "Victoria Street", "addr:suburb": "Hamilton Central", "amenity": "restaurant", "building": "retail", "cuisine": "korean", "name": "Family House", "ref:linz:address_id": "1298243"}}, {"type": "way", "id": 245155555, "nodes": [2498103436, 2523993460, 2523993476, 2523993484, 2498103436], "tags": {"addr:housenumber": "134", "addr:street": "London Street", "addr:suburb": "Hamilton Central", "amenity": "restaurant", "building": "retail", "cuisine": "chinese", "name": "Xiang Style Restaurant", "ref:linz:address_id": "1313617"}}, {"type": "way", "id": 354548961, "nodes": [3602408953, 3602408947, 4895032906, 3602408948, 3602408973, 3602408972, 3602408964, 3602408963, 3602408978, 3602408976, 3602408962, 3602408953], "tags": {"addr:housenumber": "33", "addr:street": "Jellicoe Drive", "addr:suburb": "Hamilton East", "amenity": "restaurant", "building": "retail", "name": "Hayes Common", "opening_hours": "Tu 08:00-16:00; We-Su 08:00-23:00", "outdoor_seating": "yes", "ref:linz:address_id": "687573", "wheelchair": "yes"}}, {"type": "way", "id": 371674242, "nodes": [3752332829, 3752332828, 3752332831, 3752332832, 3752332829], "tags": {"addr:city": "Hamilton", "addr:housenumber": "789", "addr:street": "Heaphy Terrace", "addr:suburb": "Claudelands", "amenity": "restaurant", "building": "retail", "name": "The Roaming Giant", "opening_hours": "Mo-Su 11:00-23:00", "ref:linz:address_id": "686936", "website": "http://theroaminggiant.co.nz/"}}]}